1  5702U 63014CU  24232.49893079  .00000950  00000-0  96535-1 0  9993
2  5702  86.2063 164.0467 1687607 184.6502 173.6708  8.73643307764189
1 05702U 63014CU  24232.49893079  .00000950  00000-0  96535-1 0  9993
2 05702  86.2063 164.0467 1687607 184.6502 173.6708  8.73643307368639
1 05702U 63014CU  24233.18604189  .00000843  00000-0  85554-1 0  9992
2 05702  86.2067 163.9459 1687708 183.8752 174.7436  8.73644644368693
1 05702U 63014CU  24235.47640226  .00001846  00000-0  18770+0 0  9996
2 05702  86.2036 163.6096 1688156 181.2945 178.3186  8.73651860368899
1  5702U 63014CU  24235.47640226  .00001846  00000-0  18770+0 0  9996
2  5702  86.2036 163.6096 1688156 181.2945 178.3186  8.73651860764440
1  5702U 63014CU  24237.19416081  .00001168  00000-0  11846+0 0  9991
2  5702  86.2015 163.3573 1688588 179.3609 180.9986  8.73655896764594
1 05702U 63014CU  24237.19416081  .00001168  00000-0  11846+0 0  9991
2 05702  86.2015 163.3573 1688588 179.3609 180.9986  8.73655896369045
1  5702U 63014CU  24239.48448928  .00001267  00000-0  12840+0 0  9995
2  5702  86.2008 163.0215 1689281 176.7722 184.5865  8.73663714764790
1  5702U 63014CU  24243.49251027  .00001159  00000-0  11703+0 0  9990
2  5702  86.2003 162.4336 1690571 172.2359 190.8652  8.73677975765141
1 05702U 63014CU  24243.49251027  .00001159  00000-0  11703+0 0  9990
2 05702  86.2003 162.4336 1690571 172.2359 190.8652  8.73677975369590
1  5702U 63014CU  24245.21020893  .00002717  00000-0  27488+0 0  9995
2  5702  86.1997 162.1812 1691173 170.2930 193.5481  8.73689021765291
1 05702U 63014CU  24245.21020893  .00002717  00000-0  27488+0 0  9995
2 05702  86.1997 162.1812 1691173 170.2930 193.5481  8.73689021369741
1 05702U 63014CU  24247.50044446  .00002287  00000-0  23077+0 0  9991
2 05702  86.1998 161.8447 1692111 167.7100 197.1062  8.73698131369944
1 05702U 63014CU  24248.18750917  .00002602  00000-0  26255+0 0  9995
2 05702  86.1995 161.7436 1692411 166.9355 198.1707  8.73701787370002
1  5702U 63014CU  24250.13417271  .00002468  00000-0  24850+0 0  9995
2  5702  86.1992 161.4574 1693312 164.7407 201.1811  8.73713353765724
1 05702U 63014CU  24250.13417271  .00002468  00000-0  24850+0 0  9995
2 05702  86.1992 161.4574 1693312 164.7407 201.1811  8.73713353370175
1  5702U 63014CU  24251.16474836  .00002282  00000-0  22949+0 0  9990
2  5702  86.1988 161.3060 1693803 163.5813 202.7669  8.73718199765812
1 05702U 63014CU  24251.16474836  .00002282  00000-0  22949+0 0  9990
2 05702  86.1988 161.3060 1693803 163.5813 202.7669  8.73718199370263
1  5702U 63014CU  24252.42433025  .00004356  00000-0  43810+0 0  9999
2  5702  86.1994 161.1213 1694467 162.1565 204.7113  8.73728788765926
1 05702U 63014CU  24252.42433025  .00004356  00000-0  43810+0 0  9999
2 05702  86.1994 161.1213 1694467 162.1565 204.7113  8.73728788370377
1  5702U 63014CU  24253.45488776  .00002004  00000-0  20100+0 0  9991
2  5702  86.1995 160.9700 1695050 160.9919 206.2966  8.73732097766015
1 05702U 63014CU  24253.45488776  .00002004  00000-0  20100+0 0  9991
2 05702  86.1995 160.9700 1695050 160.9919 206.2966  8.73732097370465
1  5702U 63014CU  24254.48543696  .00002752  00000-0  27597+0 0  9995
2  5702  86.1992 160.8187 1695656 159.8275 207.8781  8.73738663766101
1 05702U 63014CU  24254.48543696  .00002752  00000-0  27597+0 0  9995
2 05702  86.1992 160.8187 1695656 159.8275 207.8781  8.73738663370551
1 05702U 63014CU  24255.17246450  .00003101  00000-0  31074+0 0  9994
2 05702  86.1995 160.7178 1696060 159.0519 208.9291  8.73743628370618
1  5702U 63014CU  24257.11901889  .00003057  00000-0  30562+0 0  9995
2  5702  86.2010 160.4320 1697212 156.8558 211.8945  8.73756966766337
1  5702U 63014CU  24258.14953454  .00003178  00000-0  31737+0 0  9993
2  5702  86.2011 160.2807 1697836 155.6913 213.4604  8.73763590766421
1 05702U 63014CU  24258.14953454  .00003178  00000-0  31737+0 0  9993
2 05702  86.2011 160.2807 1697836 155.6913 213.4604  8.73763590370871
1  5702U 63014CU  24259.18004043  .00003327  00000-0  33192+0 0  9992
2  5702  86.2020 160.1292 1698458 154.5296 215.0175  8.73770364766519
1  5702U 63014CU  24260.43953186  .00003046  00000-0  30337+0 0  9999
2  5702  86.2033 159.9440 1699140 153.1148 216.9066  8.73779508766624
1 05702U 63014CU  24260.43953186  .00003046  00000-0  30337+0 0  9999
2 05702  86.2033 159.9440 1699140 153.1148 216.9066  8.73779508371075
1 05702U 63014CU  24261.12652102  .00003629  00000-0  36128+0 0  9991
2 05702  86.2033 159.8430 1699534 152.3430 217.9338  8.73784876371139
1  5702U 63014CU  24262.15699542  .00003518  00000-0  34979+0 0  9993
2  5702  86.2043 159.6914 1700151 151.1884 219.4662  8.73792274766779
1  5702U 63014CU  24263.41645197  .00004018  00000-0  39892+0 0  9995
2  5702  86.2068 159.5064 1701056 149.7637 221.3503  8.73802563766886
1 05702U 63014CU  24263.41645197  .00004018  00000-0  39892+0 0  9995
2 05702  86.2068 159.5064 1701056 149.7637 221.3503  8.73802563371338
1 05702U 63014CU  24264.10342052  .00002822  00000-0  27968+0 0  9998
2 05702  86.2068 159.4054 1701522 148.9917 222.3674  8.73806411371398
1  5702U 63014CU  24265.13386357  .00003791  00000-0  37544+0 0  9995
2  5702  86.2066 159.2539 1702260 147.8333 223.8889  8.73815416767031
1 05702U 63014CU  24265.13386357  .00003791  00000-0  37544+0 0  9995
2 05702  86.2066 159.2539 1702260 147.8333 223.8889  8.73815416371481
1  5702U 63014CU  24267.42369497  .00002850  00000-0  28122+0 0  9992
2  5702  86.2065 158.9174 1703873 145.2693 227.2340  8.73831174767234
1 05702U 63014CU  24267.42369497  .00002850  00000-0  28122+0 0  9992
2 05702  86.2065 158.9174 1703873 145.2693 227.2340  8.73831174371684
1  5702U 63014CU  24268.45410280  .00003720  00000-0  36666+0 0  9992
2  5702  86.2073 158.7661 1704772 144.1065 228.7420  8.73840662767329
1 05702U 63014CU  24268.45410280  .00003720  00000-0  36666+0 0  9992
2 05702  86.2073 158.7661 1704772 144.1065 228.7420  8.73840662371779
1  5702U 63014CU  24270.40039387  .00003452  00000-0  33917+0 0  9993
2  5702  86.2090 158.4802 1706270 141.9201 231.5577  8.73856087767495
1 05702U 63014CU  24270.40039387  .00003452  00000-0  33917+0 0  9993
2 05702  86.2090 158.4802 1706270 141.9201 231.5577  8.73856087371946
1 05702U 63014CU  24271.08730976  .00003517  00000-0  34522+0 0  9995
2 05702  86.2095 158.3793 1706782 141.1500 232.5434  8.73861840372005
1  5702U 63014CU  24272.11767653  .00003842  00000-0  37645+0 0  9992
2  5702  86.2118 158.2276 1707754 139.9821 234.0340  8.73870328767649
1 05702U 63014CU  24272.11767653  .00003842  00000-0  37645+0 0  9992
2 05702  86.2118 158.2276 1707754 139.9821 234.0340  8.73870328372090
1  5702U 63014CU  24273.14802780  .00003553  00000-0  34757+0 0  9997
2  5702  86.2127 158.0759 1708495 138.8295 235.4960  8.73878503767735
1 05702U 63014CU  24273.14802780  .00003553  00000-0  34757+0 0  9997
2 05702  86.2127 158.0759 1708495 138.8295 235.4960  8.73878503372186
1 05702U 63014CU  24274.06388516  .00003913  00000-0  38238+0 0  9993
2 05702  86.2135 157.9411 1709203 137.8028 236.7926  8.73886986372268
1  5702U 63014CU  24275.09421351  .00003494  00000-0  34082+0 0  9999
2  5702  86.2140 157.7893 1709995 136.6493 238.2424  8.73894546767907
1 05702U 63014CU  24275.09421351  .00003494  00000-0  34082+0 0  9999
2 05702  86.2140 157.7893 1709995 136.6493 238.2424  8.73894546372358
1  5702U 63014CU  24276.12452891  .00004130  00000-0  40237+0 0  9994
2  5702  86.2145 157.6375 1710800 135.4959 239.6846  8.73904259767992
1 05702U 63014CU  24276.12452891  .00004130  00000-0  40237+0 0  9994
2 05702  86.2145 157.6375 1710800 135.4959 239.6846  8.73904259372444
1  5702U 63014CU  24278.07064544  .00003514  00000-0  34130+0 0  9994
2  5702  86.2153 157.3510 1712263 133.3235 242.3797  8.73919384768169
1 05702U 63014CU  24278.07064544  .00003514  00000-0  34130+0 0  9994
2 05702  86.2153 157.3510 1712263 133.3235 242.3797  8.73919384372610
1  5702U 63014CU  24279.10092481  .00004275  00000-0  41462+0 0  9991
2  5702  86.2157 157.1992 1713103 132.1718 243.7979  8.73929035768253
1  5702U 63014CU  24280.13119138  .00003933  00000-0  38081+0 0  9998
2  5702  86.2160 157.0474 1713964 131.0226 245.2055  8.73937183768343
1 05702U 63014CU  24280.13119138  .00003933  00000-0  38081+0 0  9998
2 05702  86.2160 157.0474 1713964 131.0226 245.2055  8.73937183372793
1  5702U 63014CU  24282.07721953  .00003964  00000-0  38250+0 0  9999
2  5702  86.2171 156.7612 1715779 128.8424 247.8558  8.73953038768517
1 05702U 63014CU  24282.07721953  .00003964  00000-0  38250+0 0  9999
2 05702  86.2171 156.7612 1715779 128.8424 247.8558  8.73953038372967
1  5702U 63014CU  24283.10745091  .00003872  00000-0  37302+0 0  9998
2  5702  86.2177 156.6100 1716588 127.6896 249.2438  8.73960896768606
1 05702U 63014CU  24283.67979330  .00004663  00000-0  44890+0 0  9994
2 05702  86.2183 156.5261 1717046 127.0508 250.0096  8.73969352373107
1  5702U 63014CU  24284.13766860  .00002698  00000-0  25924+0 0  9991
2  5702  86.2191 156.4580 1717441 126.5501 250.6085  8.73967539768696
1 05702U 63014CU  24284.13766860  .00002698  00000-0  25924+0 0  9991
2 05702  86.2191 156.4580 1717441 126.5501 250.6085  8.73967539373148
1 05702U 63014CU  24285.05340993  .00002313  00000-0  22179+0 0  9991
2 05702  86.2205 156.3232 1718108 125.5290 251.8233  8.73973263373220
1  5702U 63014CU  24286.08360901  .00002902  00000-0  27808+0 0  9994
2  5702  86.2218 156.1715 1718976 124.3799 253.1839  8.73980846768862
1 05702U 63014CU  24286.08360901  .00002902  00000-0  27808+0 0  9994
2 05702  86.2218 156.1715 1718976 124.3799 253.1839  8.73980846373314
1  5702U 63014CU  24287.11379747  .00002570  00000-0  24568+0 0  9998
2  5702  86.2240 156.0197 1719934 123.2283 254.5401  8.73987665768957
1 05702U 63014CU  24287.57165540  .00002542  00000-0  24289+0 0  9991
2 05702  86.2245 155.9522 1720283 122.7180 255.1375  8.73990420373447
1 05702U 63014CU  24287.80058364  .00002327  00000-0  22217+0 0  9992
2 05702  86.2244 155.9184 1720496 122.4624 255.4366  8.73991845373463
